NORAD_CAT_ID,OBJECT_NAME,OBJECT_TYPE,EPOCH,MEAN_MOTION,ECCENTRICITY,INCLINATION,RA_OF_ASC_NODE,ARG_OF_PERICENTER,MEAN_ANOMALY,BSTAR,MEAN_MOTION_DOT,MEAN_MOTION_DDOT,TLE_LINE0,TLE_LINE1,TLE_LINE2,SEMIMAJOR_AXIS,PERIOD,APOGEE,PERIGEE,DECAYED
52578.0,STARLINK-3833,PAYLOAD,2022-10-09 04:01:57,15.08833436,0.0001940999999999,53.2173,334.4737,43.4817,316.6327,6.3654e-05,7.25e-06,0.0,0 STARLINK-3833,1 52578U 22051AU  22282.16802416  .00000725  00000-0  63654-4 0  9993,2 52578  53.2173 334.4737 0001941  43.4817 316.6327 15.08833436 23119,6917.9,95.438,541.1080000000002,538.423,0.0
52578.0,STARLINK-3833,PAYLOAD,2022-10-09 10:23:29,15.08839119,0.0001963,53.2175,333.2844,42.3997,317.7147,-5.9793e-05,-1.24e-05,0.0,0 STARLINK-3833,1 52578U 22051AU  22282.43298335 -.00001240  00000-0 -59793-4 0  9996,2 52578  53.2175 333.2844 0001963  42.3997 317.7147 15.08839119 23080,6917.8830000000025,95.438,541.106,538.39,0.0
52578.0,STARLINK-3833,PAYLOAD,2022-10-09 19:55:47,15.08851677,0.0001985,53.2181,331.5006,44.2651,315.85,0.00011598,1.559e-05,0.0,0 STARLINK-3833,1 52578U 22051AU  22282.83041641  .00001559  00000-0  11598-3 0  9997,2 52578  53.2181 331.5006 0001985  44.2651 315.8500 15.08851677 23142,6917.845,95.437,541.0830000000002,538.337,0.0
52578.0,STARLINK-3833,PAYLOAD,2022-10-10 07:03:30,15.08840485,0.0001986999999999,53.2183,329.42,46.3207,313.795,0.00015446,2.171e-05,0.0,0 STARLINK-3833,1 52578U 22051AU  22283.29410220  .00002171  00000-0  15446-3 0  9998,2 52578  53.2183 329.4200 0001987  46.3207 313.7950 15.08840485 23284,6917.879,95.438,541.118,538.369,0.0
52578.0,STARLINK-3833,PAYLOAD,2022-10-10 10:14:16,15.08838936,0.0001994,53.2185,328.8262,46.4677,313.6481,0.00015727,2.216e-05,0.0,0 STARLINK-3833,1 52578U 22051AU  22283.42658316  .00002216  00000-0  15727-3 0  9995,2 52578  53.2185 328.8262 0001994  46.4677 313.6481 15.08838936 23238,6917.884,95.438,541.128,538.369,0.0
52578.0,STARLINK-3833,PAYLOAD,2022-10-11 03:43:31,15.08835191,0.0001992,53.2182,325.5551,56.5498,303.5684,5.3808e-05,5.68e-06,0.0,0 STARLINK-3833,1 52578U 22051AU  22284.15522745  .00000568  00000-0  53808-4 0  9993,2 52578  53.2182 325.5551 0001992  56.5498 303.5684 15.08835191 23414,6917.895,95.438,541.138,538.382,0.0
52578.0,STARLINK-3833,PAYLOAD,2022-10-11 13:15:51,15.08822075,0.0001996,53.2189,323.7707,45.838,314.2776,-2.0486e-05,-6.14e-06,0.0,0 STARLINK-3833,1 52578U 22051AU  22284.55268236 -.00000614  00000-0 -20486-4 0  9999,2 52578  53.2189 323.7707 0001996  45.8380 314.2776 15.08822075 23473,6917.935,95.439,541.181,538.419,0.0
52578.0,STARLINK-3833,PAYLOAD,2022-10-12 03:34:21,15.08816965,0.0001988,53.2182,321.0927,44.3634,315.7517,-0.00013166,-2.382e-05,0.0,0 STARLINK-3833,1 52578U 22051AU  22285.14885450 -.00002382  00000-0 -13166-3 0  9998,2 52578  53.2182 321.0927 0001988  44.3634 315.7517 15.08816965 23568,6917.951,95.439,541.191,538.441,0.0
52578.0,STARLINK-3833,PAYLOAD,2022-10-12 11:31:16,15.08824213,0.0002009999999999,53.2176,319.6045,45.5094,314.6063,5.0519e-06,-2.08e-06,0.0,0 STARLINK-3833,1 52578U 22051AU  22285.48004903 -.00000208  00000-0  50519-5 0  9990,2 52578  53.2176 319.6045 0002010  45.5094 314.6063 15.08824213 23542,6917.929,95.439,541.184,538.403,0.0
52578.0,STARLINK-3833,PAYLOAD,2022-10-13 01:49:43,15.08828074,0.0002052,53.2174,316.9275,43.7488,316.3667,0.0001949,2.814e-05,0.0,0 STARLINK-3833,1 52578U 22051AU  22286.07620309  .00002814  00000-0  19490-3 0  9995,2 52578  53.2174 316.9275 0002052  43.7488 316.3667 15.08828074 23704,6917.917,95.438,541.201,538.362,0.0
52578.0,STARLINK-3833,PAYLOAD,2022-10-13 11:22:02,15.08830951,0.0002171,53.2173,315.1471,43.1198,316.9964,0.00015163,2.125e-05,0.0,0 STARLINK-3833,1 52578U 22051AU  22286.47364572  .00002125  00000-0  15163-3 0  9994,2 52578  53.2173 315.1471 0002171  43.1198 316.9964 15.08830951 23697,6917.908,95.438,541.275,538.271,0.0
52578.0,STARLINK-3833,PAYLOAD,2022-10-14 06:26:40,15.08842931,0.0002168,53.2182,311.5753,43.8399,316.2765,0.00016969,2.414e-05,0.0,0 STARLINK-3833,1 52578U 22051AU  22287.26852165  .00002414  00000-0  16969-3 0  9998,2 52578  53.2182 311.5753 0002168  43.8399 316.2765 15.08842931 23880,6917.871,95.437,541.236,538.237,0.0
52578.0,STARLINK-3833,PAYLOAD,2022-10-14 11:12:49,15.08842881,0.0002130999999999,53.2187,310.6843,48.2641,311.8533,0.00018082,2.591e-05,0.0,0 STARLINK-3833,1 52578U 22051AU  22287.46724073  .00002591  00000-0  18082-3 0  9990,2 52578  53.2187 310.6843 0002131  48.2641 311.8533 15.08842881 23848,6917.871999999999,95.437,541.211,538.262,0.0
52578.0,STARLINK-3833,PAYLOAD,2022-10-14 19:09:44,15.08852623,0.0002151999999999,53.2191,309.1975,44.7202,315.3963,0.00013502,1.862e-05,0.0,0 STARLINK-3833,1 52578U 22051AU  22287.79843421  .00001862  00000-0  13502-3 0  9997,2 52578  53.2191 309.1975 0002152  44.7202 315.3963 15.08852623 23895,6917.842,95.437,541.196,538.2180000000002,0.0
52578.0,STARLINK-3833,PAYLOAD,2022-10-15 07:52:50,15.08846692,0.0002275999999999,53.2178,306.8196,50.9419,309.1775,2.1823e-05,5.9e-07,0.0,0 STARLINK-3833,1 52578U 22051AU  22288.32835846  .00000059  00000-0  21823-4 0  9992,2 52578  53.2178 306.8196 0002276  50.9419 309.1775 15.08846692 24044,6917.86,95.437,541.299,538.15,0.0
52578.0,STARLINK-3833,PAYLOAD,2022-10-16 01:22:04,15.0884057,0.00022,53.218,303.5478,51.8698,308.2492,-1.6308e-05,-5.48e-06,0.0,0 STARLINK-3833,1 52578U 22051AU  22289.05700014 -.00000548  00000-0 -16308-4 0  9998,2 52578  53.2180 303.5478 0002200  51.8698 308.2492 15.08840570 24089,6917.879,95.438,541.266,538.222,0.0
52578.0,STARLINK-3833,PAYLOAD,2022-10-17 01:12:53,15.08825692,0.0002245,53.217,299.0868,53.6804,306.4395,-7.8563e-05,-1.538e-05,0.0,0 STARLINK-3833,1 52578U 22051AU  22290.05061448 -.00001538  00000-0 -78563-4 0  9992,2 52578  53.2170 299.0868 0002245  53.6804 306.4395 15.08825692 24303,6917.924,95.438,541.342,538.236,0.0
52578.0,STARLINK-3833,PAYLOAD,2022-10-17 07:34:25,15.08832242,0.0001939,53.2177,297.8969,37.5419,322.5708,-1.5713e-05,-5.38e-06,0.0,0 STARLINK-3833,1 52578U 22051AU  22290.31556984 -.00000538  00000-0 -15713-4 0  9992,2 52578  53.2177 297.8969 0001939  37.5419 322.5708 15.08832242 24340,6917.904,95.438,541.11,538.428,0.0
52578.0,STARLINK-3833,PAYLOAD,2022-10-18 07:25:12,15.08830628,0.0002026999999999,53.2172,293.4363,40.8718,319.2426,0.0001307,1.792e-05,0.0,0 STARLINK-3833,1 52578U 22051AU  22291.30916812  .00001792  00000-0  13070-3 0  9996,2 52578  53.2172 293.4363 0002027  40.8718 319.2426 15.08830628 24428,6917.909000000002,95.438,541.1759999999998,538.372,0.0
52578.0,STARLINK-3833,PAYLOAD,2022-10-19 05:40:36,15.08837112,0.0002053,53.2162,289.2718,37.2455,322.8679,2.7035e-05,1.42e-06,0.0,0 STARLINK-3833,1 52578U 22051AU  22292.23653086  .00000142  00000-0  27035-4 0  9995,2 52578  53.2162 289.2718 0002053  37.2455 322.8679 15.08837112 24639,6917.889,95.438,541.174,538.3340000000002,0.0
52578.0,STARLINK-3833,PAYLOAD,2022-10-19 07:15:59,15.08836587,0.000207,53.2161,288.9745,37.4286,322.685,3.6291e-05,2.89e-06,0.0,0 STARLINK-3833,1 52578U 22051AU  22292.30277085  .00000289  00000-0  36291-4 0  9990,2 52578  53.2161 288.9745 0002070  37.4286 322.6850 15.08836587 24574,6917.891,95.438,541.188,538.3240000000002,0.0
52578.0,STARLINK-3833,PAYLOAD,2022-10-20 05:31:22,15.0885429,0.0002065999999999,53.2173,284.8118,40.0694,320.045,3.5898e-05,2.83e-06,0.0,0 STARLINK-3833,1 52578U 22051AU  22293.23011671  .00000283  00000-0  35898-4 0  9996,2 52578  53.2173 284.8118 0002066  40.0694 320.0450 15.08854290 24786,6917.837,95.437,541.131,538.2719999999998,0.0
52578.0,STARLINK-3833,PAYLOAD,2022-10-20 07:06:45,15.08842208,0.0001873,53.2166,284.5137,45.7611,314.3535,3.0582e-05,1.99e-06,0.0,0 STARLINK-3833,1 52578U 22051AU  22293.29636350  .00000199  00000-0  30582-4 0  9990,2 52578  53.2166 284.5137 0001873  45.7611 314.3535 15.08842208 24799,6917.874,95.437,541.034,538.443,0.0
52578.0,STARLINK-3833,PAYLOAD,2022-10-20 16:39:04,15.08843249,0.0002076,53.2171,282.7299,44.0752,316.0405,3.8117e-05,3.18e-06,0.0,0 STARLINK-3833,1 52578U 22051AU  22293.69380222  .00000318  00000-0  38117-4 0  9993,2 52578  53.2171 282.7299 0002076  44.0752 316.0405 15.08843249 24788,6917.87,95.437,541.172,538.299,0.0
52578.0,STARLINK-3833,PAYLOAD,2022-10-21 05:22:08,15.08851842,0.0002049,53.2173,280.351,46.7635,313.3528,0.0001431999999999,1.992e-05,0.0,0 STARLINK-3833,1 52578U 22051AU  22294.22371073  .00001992  00000-0  14320-3 0  9995,2 52578  53.2173 280.3510 0002049  46.7635 313.3528 15.08851842 24930,6917.844,95.437,541.127,538.2919999999998,0.0
52578.0,STARLINK-3833,PAYLOAD,2022-10-21 06:57:31,15.08849613,0.0002133,53.2169,280.055,37.0949,323.019,0.00016122,2.279e-05,0.0,0 STARLINK-3833,1 52578U 22051AU  22294.28995101  .00002279  00000-0  16122-3 0  9996,2 52578  53.2169 280.0550 0002133  37.0949 323.0190 15.08849613 24870,6917.851,95.437,541.192,538.24,0.0
52578.0,STARLINK-3833,PAYLOAD,2022-10-22 05:12:56,15.08845134,0.000199,53.2183,275.891,53.9903,306.1274,-5.1987e-05,-1.116e-05,0.0,0 STARLINK-3833,1 52578U 22051AU  22295.21731656 -.00001116  00000-0 -51987-4 0  9993,2 52578  53.2183 275.8910 0001990  53.9903 306.1274 15.08845134 25088,6917.865,95.437,541.106,538.3530000000002,0.0
52578.0,STARLINK-3833,PAYLOAD,2022-10-22 08:23:42,15.08845578,0.0001942,53.2176,275.2962,46.8465,313.2689,-4.308e-05,-9.74e-06,0.0,0 STARLINK-3833,1 52578U 22051AU  22295.34979454 -.00000974  00000-0 -43080-4 0  9993,2 52578  53.2176 275.2962 0001942  46.8465 313.2689 15.08845578 25038,6917.863,95.437,541.072,538.385,0.0
52578.0,STARLINK-3833,PAYLOAD,2022-10-22 16:20:38,15.08836166,0.0002079,53.2167,273.8091,48.1641,311.9529,-2.3312e-05,-6.59e-06,0.0,0 STARLINK-3833,1 52578U 22051AU  22295.68100116 -.00000659  00000-0 -23312-4 0  9997,2 52578  53.2167 273.8091 0002079  48.1641 311.9529 15.08836166 25084,6917.892,95.438,541.195,538.319,0.0
